EUTELSAT 7A             
1 28187U 04008A   25297.59131488  .00000116  00000+0  00000+0 0  9998
2 28187   5.2290  74.8083 0000796 114.0085 278.1112  1.00270761 78996
EUTELSAT 174A           
1 28924U 05052A   25297.79613720  .00000023  00000+0  00000+0 0  9990
2 28924   3.6195  79.4303 0006124 132.8434 281.8540  1.00269735 49975
EUTELSAT HOTBIRD 13B    
1 29270U 06032A   25297.91088441  .00000169  00000+0  00000+0 0  9995
2 29270   1.0492  84.7862 0003927 121.5614 188.2455  1.00274003 44945
EUTELSAT HOTBIRD 13C    
1 33459U 08065A   25297.93516705 -.00000087  00000+0  00000+0 0  9998
2 33459   2.3415  81.9602 0005896 150.8301 124.9869  1.00272307 44989
EUTELSAT 36B            
1 36101U 09065A   25297.91435110  .00000125  00000+0  00000+0 0  9996
2 36101   0.0509   2.7745 0005908 211.9053 198.5791  1.00270007 58342
EUTELSAT KA-SAT 9A      
1 37258U 10069A   25297.62069503  .00000075  00000+0  00000+0 0  9997
2 37258   0.0574 321.5705 0002514 216.0831  88.0974  1.00274610 41641
EUTELSAT 7 WEST A       
1 37816U 11051A   25297.92961487 -.00000047  00000+0  00000+0 0  9994
2 37816   0.0939  46.9716 0006280 159.9023 154.0894  1.00272554 51526
EUTELSAT 16A            
1 37836U 11057A   25297.87683769  .00000116  00000+0  00000+0 0  9996
2 37836   0.0657 359.2870 0005495 215.0603 150.8686  1.00270277  4960
